[{"OBJECT_NAME":"YAM-7","OBJECT_ID":"2024-149AN","EPOCH":"2026-03-09T17:13:55.117920","MEAN_MOTION":15.30304554,"ECCENTRICITY":0.00019733,"INCLINATION":97.3828,"RA_OF_ASC_NODE":149.4631,"ARG_OF_PERICENTER":296.5121,"MEAN_ANOMALY":63.5918,"EPHEMERIS_TYPE":0,"CLASSIFICATION_TYPE":"U","NORAD_CAT_ID":60504,"ELEMENT_SET_NO":999,"REV_AT_EPOCH":8683,"BSTAR":0.00030984439,"MEAN_MOTION_DOT":9.009e-5,"MEAN_MOTION_DDOT":0},{"OBJECT_NAME":"STARLINK-36506","OBJECT_ID":"2026-005L","EPOCH":"2026-03-09T11:03:20.861568","MEAN_MOTION":15.27599478,"ECCENTRICITY":0.00010431,"INCLINATION":42.9969,"RA_OF_ASC_NODE":239.0803,"ARG_OF_PERICENTER":258.6367,"MEAN_ANOMALY":101.4367,"EPHEMERIS_TYPE":0,"CLASSIFICATION_TYPE":"U","NORAD_CAT_ID":67414,"ELEMENT_SET_NO":999,"REV_AT_EPOCH":866,"BSTAR":0.0010330166,"MEAN_MOTION_DOT":0.0002829,"MEAN_MOTION_DDOT":0}]
