YAM-7                   
1 60504U 24149AN  26068.71799904  .00009009  00000+0  30984-3 0  9997
2 60504  97.3828 149.4631 0001973 296.5121  63.5918 15.30304554 86835
STARLINK-36506          
1 67414U 26005L   26068.46065812  .00028290  00000+0  10330-2 0  9998
2 67414  42.9969 239.0803 0001043 258.6367 101.4367 15.27599478  8662
